{
  "type": "FeatureCollection",
  "features": [
    {
      "type": "Feature",
      "properties": {
        "norad_id": 66355,
        "name": "STARLINK-35861",
        "group": "last-30-days",
        "lat": 48.38214573136539,
        "lon": 87.05538120157424,
        "alt_km": 362.0212913910309,
        "timestamp": "2025-12-02T17:49:10.798335+00:00",
        "meta_object_name": "STARLINK-35861",
        "meta_object_id": "2025-254H",
        "meta_epoch": "2025-12-02T12:00:05.998752",
        "meta_mean_motion": 15.67452033,
        "meta_eccentricity": 0.0001338,
        "meta_inclination": 53.1587,
        "meta_ra_of_asc_node": 325.8054,
        "meta_arg_of_pericenter": 82.2832,
        "meta_mean_anomaly": 100.3075,
        "meta_ephemeris_type": 0,
        "meta_classification_type": "U",
        "meta_norad_cat_id": 66355,
        "meta_element_set_no": 999,
        "meta_rev_at_epoch": 527,
        "meta_bstar": -0.020242,
        "meta_mean_motion_dot": -0.01972829,
        "meta_mean_motion_ddot": 0,
        "tle_line1": "1 66355U 25254H   25336.50006943 -.01972829  00000+0 -20242-1 0  9999",
        "tle_line2": "2 66355  53.1587 325.8054 0001338  82.2832 100.3075 15.67452033  5279"
      },
      "geometry": {
        "type": "Point",
        "coordinates": [
          87.05538120157424,
          48.38214573136539
        ]
      }
    },
    {
      "type": "Feature",
      "properties": {
        "norad_id": 66356,
        "name": "STARLINK-35851",
        "group": "last-30-days",
        "lat": 47.527104662478266,
        "lon": 89.62600068754499,
        "alt_km": 362.1224089586485,
        "timestamp": "2025-12-02T17:49:10.798348+00:00",
        "meta_object_name": "STARLINK-35851",
        "meta_object_id": "2025-254J",
        "meta_epoch": "2025-12-02T12:00:05.998752",
        "meta_mean_motion": 15.67463602,
        "meta_eccentricity": 0.0001371,
        "meta_inclination": 53.1589,
        "meta_ra_of_asc_node": 325.8008,
        "meta_arg_of_pericenter": 84.9648,
        "meta_mean_anomaly": 99.5428,
        "meta_ephemeris_type": 0,
        "meta_classification_type": "U",
        "meta_norad_cat_id": 66356,
        "meta_element_set_no": 999,
        "meta_rev_at_epoch": 527,
        "meta_bstar": -0.02046,
        "meta_mean_motion_dot": -0.0199246,
        "meta_mean_motion_ddot": 0,
        "tle_line1": "1 66356U 25254J   25336.50006943 -.01992460  00000+0 -20460-1 0  9995",
        "tle_line2": "2 66356  53.1589 325.8008 0001371  84.9648  99.5428 15.67463602  5277"
      },
      "geometry": {
        "type": "Point",
        "coordinates": [
          89.62600068754499,
          47.527104662478266
        ]
      }
    },
    {
      "type": "Feature",
      "properties": {
        "norad_id": 66357,
        "name": "STARLINK-35817",
        "group": "last-30-days",
        "lat": 46.620522661581234,
        "lon": 92.10004395857717,
        "alt_km": 362.3088058032072,
        "timestamp": "2025-12-02T17:49:10.798359+00:00",
        "meta_object_name": "STARLINK-35817",
        "meta_object_id": "2025-254K",
        "meta_epoch": "2025-12-02T12:00:05.998752",
        "meta_mean_motion": 15.67452307,
        "meta_eccentricity": 0.0001304,
        "meta_inclination": 53.1588,
        "meta_ra_of_asc_node": 325.7967,
        "meta_arg_of_pericenter": 85.0926,
        "meta_mean_anomaly": 101.3327,
        "meta_ephemeris_type": 0,
        "meta_classification_type": "U",
        "meta_norad_cat_id": 66357,
        "meta_element_set_no": 999,
        "meta_rev_at_epoch": 527,
        "meta_bstar": -0.020255,
        "meta_mean_motion_dot": -0.01974007,
        "meta_mean_motion_ddot": 0,
        "tle_line1": "1 66357U 25254K   25336.50006943 -.01974007  00000+0 -20255-1 0  9995",
        "tle_line2": "2 66357  53.1588 325.7967 0001304  85.0926 101.3327 15.67452307  5277"
      },
      "geometry": {
        "type": "Point",
        "coordinates": [
          92.10004395857717,
          46.620522661581234
        ]
      }
    },
    {
      "type": "Feature",
      "properties": {
        "norad_id": 66358,
        "name": "STARLINK-35807",
        "group": "last-30-days",
        "lat": 45.66106228554916,
        "lon": 94.49258017854672,
        "alt_km": 362.4656747406507,
        "timestamp": "2025-12-02T17:49:10.798369+00:00",
        "meta_object_name": "STARLINK-35807",
        "meta_object_id": "2025-254L",
        "meta_epoch": "2025-12-02T12:00:05.998752",
        "meta_mean_motion": 15.67456069,
        "meta_eccentricity": 0.000124,
        "meta_inclination": 53.1587,
        "meta_ra_of_asc_node": 325.7922,
        "meta_arg_of_pericenter": 90.3044,
        "meta_mean_anomaly": 98.0346,
        "meta_ephemeris_type": 0,
        "meta_classification_type": "U",
        "meta_norad_cat_id": 66358,
        "meta_element_set_no": 999,
        "meta_rev_at_epoch": 527,
        "meta_bstar": -0.020293,
        "meta_mean_motion_dot": -0.01977499,
        "meta_mean_motion_ddot": 0,
        "tle_line1": "1 66358U 25254L   25336.50006943 -.01977499  00000+0 -20293-1 0  9996",
        "tle_line2": "2 66358  53.1587 325.7922 0001240  90.3044  98.0346 15.67456069  5279"
      },
      "geometry": {
        "type": "Point",
        "coordinates": [
          94.49258017854672,
          45.66106228554916
        ]
      }
    },
    {
      "type": "Feature",
      "properties": {
        "norad_id": 66359,
        "name": "STARLINK-35805",
        "group": "last-30-days",
        "lat": 44.65148487280415,
        "lon": 96.80839939431435,
        "alt_km": 362.57895376227225,
        "timestamp": "2025-12-02T17:49:10.798379+00:00",
        "meta_object_name": "STARLINK-35805",
        "meta_object_id": "2025-254M",
        "meta_epoch": "2025-12-02T12:00:05.998752",
        "meta_mean_motion": 15.67451225,
        "meta_eccentricity": 0.0001388,
        "meta_inclination": 53.1591,
        "meta_ra_of_asc_node": 325.7888,
        "meta_arg_of_pericenter": 85.5667,
        "meta_mean_anomaly": 104.6917,
        "meta_ephemeris_type": 0,
        "meta_classification_type": "U",
        "meta_norad_cat_id": 66359,
        "meta_element_set_no": 999,
        "meta_rev_at_epoch": 524,
        "meta_bstar": -0.020229,
        "meta_mean_motion_dot": -0.01971766,
        "meta_mean_motion_ddot": 0,
        "tle_line1": "1 66359U 25254M   25336.50006943 -.01971766  00000+0 -20229-1 0  9997",
        "tle_line2": "2 66359  53.1591 325.7888 0001388  85.5667 104.6917 15.67451225  5240"
      },
      "geometry": {
        "type": "Point",
        "coordinates": [
          96.80839939431435,
          44.65148487280415
        ]
      }
    },
    {
      "type": "Feature",
      "properties": {
        "norad_id": 66360,
        "name": "STARLINK-35823",
        "group": "last-30-days",
        "lat": 42.50089725135124,
        "lon": 101.1936253490937,
        "alt_km": 362.95526019050885,
        "timestamp": "2025-12-02T17:49:10.798390+00:00",
        "meta_object_name": "STARLINK-35823",
        "meta_object_id": "2025-254N",
        "meta_epoch": "2025-12-02T12:00:05.998752",
        "meta_mean_motion": 15.67451074,
        "meta_eccentricity": 0.0001346,
        "meta_inclination": 53.1594,
        "meta_ra_of_asc_node": 325.78,
        "meta_arg_of_pericenter": 86.9314,
        "meta_mean_anomaly": 107.1622,
        "meta_ephemeris_type": 0,
        "meta_classification_type": "U",
        "meta_norad_cat_id": 66360,
        "meta_element_set_no": 999,
        "meta_rev_at_epoch": 527,
        "meta_bstar": -0.020239,
        "meta_mean_motion_dot": -0.01972585,
        "meta_mean_motion_ddot": 0,
        "tle_line1": "1 66360U 25254N   25336.50006943 -.01972585  00000+0 -20239-1 0  9990",
        "tle_line2": "2 66360  53.1594 325.7800 0001346  86.9314 107.1622 15.67451074  5273"
      },
      "geometry": {
        "type": "Point",
        "coordinates": [
          101.1936253490937,
          42.50089725135124
        ]
      }
    },
    {
      "type": "Feature",
      "properties": {
        "norad_id": 66361,
        "name": "STARLINK-35813",
        "group": "last-30-days",
        "lat": 43.59652369687593,
        "lon": 99.04166519748792,
        "alt_km": 362.71610627401606,
        "timestamp": "2025-12-02T17:49:10.798400+00:00",
        "meta_object_name": "STARLINK-35813",
        "meta_object_id": "2025-254P",
        "meta_epoch": "2025-12-02T12:00:05.998752",
        "meta_mean_motion": 15.67455018,
        "meta_eccentricity": 0.0001414,
        "meta_inclination": 53.159,
        "meta_ra_of_asc_node": 325.7849,
        "meta_arg_of_pericenter": 88.8309,
        "meta_mean_anomaly": 103.3447,
        "meta_ephemeris_type": 0,
        "meta_classification_type": "U",
        "meta_norad_cat_id": 66361,
        "meta_element_set_no": 999,
        "meta_rev_at_epoch": 527,
        "meta_bstar": -0.020311,
        "meta_mean_motion_dot": -0.01979101,
        "meta_mean_motion_ddot": 0,
        "tle_line1": "1 66361U 25254P   25336.50006943 -.01979101  00000+0 -20311-1 0  9993",
        "tle_line2": "2 66361  53.1590 325.7849 0001414  88.8309 103.3447 15.67455018  5279"
      },
      "geometry": {
        "type": "Point",
        "coordinates": [
          99.04166519748792,
          43.59652369687593
        ]
      }
    }
  ]
}